ICEYE-X40               
1 60549U 24149CK  25066.18429671  .00001811  00000+0  16761-3 0  9995
2 60549  97.7216 144.6853 0004969 189.6042 170.5085 14.95752137 30213
SATELIOT_1              
1 60550U 24149CL  25066.20001299  .00003895  00000+0  35806-3 0  9997
2 60550  97.7154 144.5307 0007008 191.5176 168.5886 14.95355705 30212
BRO-14                  
1 60551U 24149CM  25066.13021855  .00001492  00000+0  14386-3 0  9991
2 60551  97.7277 144.6197 0006384 208.5902 151.4969 14.94395474 30195
SATELIOT_3              
1 60552U 24149CN  25066.28937895  .00004488  00000+0  40795-3 0  9999
2 60552  97.7221 144.8918 0007841 198.9174 161.1757 14.95709297 30231
BRO-15                  
1 60553U 24149CP  25066.28620150  .00002311  00000+0  21799-3 0  9999
2 60553  97.7214 144.6973 0007869 198.4318 161.6619 14.94732226 30226
UM5-RIBAT               
1 60554U 24149CQ  25066.28589305  .00005164  00000+0  45722-3 0  9997
2 60554  97.7165 144.9171 0008660 188.7145 171.3928 14.96667642 30249
UM5-EOSAT               
1 60555U 24149CR  25066.11745648  .00003921  00000+0  34512-3 0  9998
2 60555  97.7247 144.9974 0008045 198.1967 161.8968 14.97051301 30222
LASARSAT                
1 62391U 24247Q   25066.38792808  .00017995  00000+0  79606-3 0  9995
2 62391  44.9928 311.4883 0005539 206.3240 153.7359 15.21478052 11691
CROCUBE                 
1 62394U 24247T   25065.01084349  .00020270  00000+0  89548-3 0  9997
2 62394  44.9914 318.9560 0005970 198.5091 161.5573 15.21452737 11482
